start=new Date('2022-07-18T00:00:00.000Z').valueOf();
sats=[{"MEAN_ANOMALY":"278.7892","OBJECT_NAME":"STARLINK-2340","MEAN_MOTION_DDOT":"0.0000000000000","MEAN_MOTION_DOT":"-0.00000864","DECAY_DATE":null,"SEMIMAJOR_AXIS":"6925.350","ARG_OF_PERICENTER":"81.3278","CENTER_NAME":"EARTH","PERIOD":"95.592","INCLINATION":"53.0567","SITE":"AFETR","REV_AT_EPOCH":"7575","TLE_LINE2":"2 47882  53.0567 126.4857 0001599  81.3278 278.7892 15.06399681 75758","FILE":"3516387","RCS_SIZE":"LARGE","TIME_SYSTEM":"UTC","CLASSIFICATION_TYPE":"U","PERIAPSIS":"546.107","EPOCH":"2022-07-17T17:50:06.380160","EPHEMERIS_TYPE":"0","REF_FRAME":"TEME","MEAN_ELEMENT_THEORY":"SGP4","ELEMENT_SET_NO":"999","TLE_LINE1":"1 47882U 21021Y   22198.74312940 -.00000864  00000-0 -39108-4 0  9992","MEAN_MOTION":"15.06399681","OBJECT_TYPE":"PAYLOAD","COUNTRY_CODE":"US","ECCENTRICITY":"0.00015990","OBJECT_ID":"2021-021Y","LAUNCH_DATE":"2021-03-14","NORAD_CAT_ID":"47882","APOAPSIS":"548.322","RA_OF_ASC_NODE":"126.4857","GP_ID":"208339021","BSTAR":"-0.00003910800000"},{"RA_OF_ASC_NODE":"131.3017","GP_ID":"208337280","BSTAR":"-0.00005478200000","ECCENTRICITY":"0.00016050","LAUNCH_DATE":"2021-03-14","OBJECT_ID":"2021-021Z","NORAD_CAT_ID":"47883","APOAPSIS":"548.326","OBJECT_TYPE":"PAYLOAD","COUNTRY_CODE":"US","ELEMENT_SET_NO":"999","MEAN_MOTION":"15.06399590","TLE_LINE1":"1 47883U 21021Z   22198.78137035 -.00001097  00000-0 -54782-4 0  9991","PERIAPSIS":"546.103","CLASSIFICATION_TYPE":"U","REF_FRAME":"TEME","EPHEMERIS_TYPE":"0","EPOCH":"2022-07-17T18:45:10.398240","MEAN_ELEMENT_THEORY":"SGP4","SITE":"AFETR","INCLINATION":"53.0538","PERIOD":"95.592","CENTER_NAME":"EARTH","TLE_LINE2":"2 47883  53.0538 131.3017 0001605  67.8935 292.2224 15.06399590 75699","REV_AT_EPOCH":"7569","TIME_SYSTEM":"UTC","RCS_SIZE":"LARGE","FILE":"3516387","OBJECT_NAME":"STARLINK-2342","MEAN_ANOMALY":"292.2224","DECAY_DATE":null,"MEAN_MOTION_DDOT":"0.0000000000000","MEAN_MOTION_DOT":"-0.00001097","ARG_OF_PERICENTER":"67.8935","SEMIMAJOR_AXIS":"6925.350"},{"MEAN_ELEMENT_THEORY":"SGP4","EPOCH":"2022-07-17T19:56:10.097952","EPHEMERIS_TYPE":"0","REF_FRAME":"TEME","PERIAPSIS":"546.045","CLASSIFICATION_TYPE":"U","FILE":"3516387","TIME_SYSTEM":"UTC","RCS_SIZE":"LARGE","REV_AT_EPOCH":"7545","TLE_LINE2":"2 47884  53.0545 136.0880 0001684  66.9381 293.1786 15.06400911 75457","CENTER_NAME":"EARTH","PERIOD":"95.592","SITE":"AFETR","INCLINATION":"53.0545","SEMIMAJOR_AXIS":"6925.346","ARG_OF_PERICENTER":"66.9381","MEAN_MOTION_DOT":"0.00001211","MEAN_MOTION_DDOT":"0.0000000000000","DECAY_DATE":null,"MEAN_ANOMALY":"293.1786","OBJECT_NAME":"STARLINK-2343","GP_ID":"208337530","BSTAR":"0.00010021000000","RA_OF_ASC_NODE":"136.0880","APOAPSIS":"548.377","NORAD_CAT_ID":"47884","OBJECT_ID":"2021-021AA","LAUNCH_DATE":"2021-03-14","ECCENTRICITY":"0.00016840","COUNTRY_CODE":"US","OBJECT_TYPE":"PAYLOAD","TLE_LINE1":"1 47884U 21021AA  22198.83067243  .00001211  00000-0  10021-3 0  9994","MEAN_MOTION":"15.06400911","ELEMENT_SET_NO":"999"},{"COUNTRY_CODE":"US","OBJECT_TYPE":"PAYLOAD","MEAN_MOTION":"15.06404231","TLE_LINE1":"1 47885U 21021AB  22198.55928904  .00000900  00000-0  79300-4 0  9994","ELEMENT_SET_NO":"999","BSTAR":"0.00007930000000","GP_ID":"208308886","RA_OF_ASC_NODE":"142.3023","APOAPSIS":"548.222","NORAD_CAT_ID":"47885","LAUNCH_DATE":"2021-03-14","OBJECT_ID":"2021-021AB","ECCENTRICITY":"0.00014750","ARG_OF_PERICENTER":"70.0910","SEMIMAJOR_AXIS":"6925.336","DECAY_DATE":null,"MEAN_MOTION_DOT":"0.00000900","MEAN_MOTION_DDOT":"0.0000000000000","OBJECT_NAME":"STARLINK-2344","MEAN_ANOMALY":"290.0238","MEAN_ELEMENT_THEORY":"SGP4","REF_FRAME":"TEME","EPHEMERIS_TYPE":"0","EPOCH":"2022-07-17T13:25:22.573056","PERIAPSIS":"546.179","CLASSIFICATION_TYPE":"U","TIME_SYSTEM":"UTC","RCS_SIZE":"LARGE","FILE":"3516162","TLE_LINE2":"2 47885  53.0557 142.3023 0001475  70.0910 290.0238 15.06404231 75505","REV_AT_EPOCH":"7550","INCLINATION":"53.0557","SITE":"AFETR","CENTER_NAME":"EARTH","PERIOD":"95.592"},{"CENTER_NAME":"EARTH","PERIOD":"95.592","SITE":"AFETR","INCLINATION":"53.0549","REV_AT_EPOCH":"7552","TLE_LINE2":"2 47886  53.0549 131.4141 0001927  59.7327 300.3852 15.06398598 75522","FILE":"3516387","RCS_SIZE":"LARGE","TIME_SYSTEM":"UTC","PERIAPSIS":"545.883","CLASSIFICATION_TYPE":"U","EPOCH":"2022-07-17T18:11:58.319232","REF_FRAME":"TEME","EPHEMERIS_TYPE":"0","MEAN_ELEMENT_THEORY":"SGP4","MEAN_ANOMALY":"300.3852","OBJECT_NAME":"STARLINK-2345","MEAN_MOTION_DDOT":"0.0000000000000","MEAN_MOTION_DOT":"0.00000055","DECAY_DATE":null,"SEMIMAJOR_AXIS":"6925.353","ARG_OF_PERICENTER":"59.7327","ECCENTRICITY":"0.00019270","OBJECT_ID":"2021-021AC","LAUNCH_DATE":"2021-03-14","NORAD_CAT_ID":"47886","APOAPSIS":"548.552","RA_OF_ASC_NODE":"131.4141","GP_ID":"208338522","BSTAR":"0.00002262400000","ELEMENT_SET_NO":"999","TLE_LINE1":"1 47886U 21021AC  22198.75831388  .00000055  00000-0  22624-4 0  9994","MEAN_MOTION":"15.06398598","OBJECT_TYPE":"PAYLOAD","COUNTRY_CODE":"US"},{"TLE_LINE2":"2 47887  53.0529 136.2818 0001653  74.6468 285.4704 15.06397981 74975","REV_AT_EPOCH":"7497","SITE":"AFETR","INCLINATION":"53.0529","CENTER_NAME":"EARTH","PERIOD":"95.592","RCS_SIZE":"LARGE","TIME_SYSTEM":"UTC","FILE":"3516360","EPHEMERIS_TYPE":"0","REF_FRAME":"TEME","EPOCH":"2022-07-17T18:47:09.920544","CLASSIFICATION_TYPE":"U","PERIAPSIS":"546.075","MEAN_ELEMENT_THEORY":"SGP4","DECAY_DATE":null,"MEAN_MOTION_DOT":"0.00000045","MEAN_MOTION_DDOT":"0.0000000000000","OBJECT_NAME":"STARLINK-2346","MEAN_ANOMALY":"285.4704","ARG_OF_PERICENTER":"74.6468","SEMIMAJOR_AXIS":"6925.355","LAUNCH_DATE":"2021-03-14","OBJECT_ID":"2021-021AD","ECCENTRICITY":"0.00016530","APOAPSIS":"548.365","NORAD_CAT_ID":"47887","RA_OF_ASC_NODE":"136.2818","BSTAR":"0.00002189400000","GP_ID":"208316024","MEAN_MOTION":"15.06397981","TLE_LINE1":"1 47887U 21021AD  22198.78275371  .00000045  00000-0  21894-4 0  9999","ELEMENT_SET_NO":"999","OBJECT_TYPE":"PAYLOAD","COUNTRY_CODE":"US"},{"REV_AT_EPOCH":"7560","TLE_LINE2":"2 47888  53.0535 126.1961 0001976  62.2560 297.8629 15.06397187 75606","PERIOD":"95.592","CENTER_NAME":"EARTH","SITE":"AFETR","INCLINATION":"53.0535","FILE":"3516387","TIME_SYSTEM":"UTC","RCS_SIZE":"LARGE","EPOCH":"2022-07-17T19:20:20.204160","EPHEMERIS_TYPE":"0","REF_FRAME":"TEME","CLASSIFICATION_TYPE":"U","PERIAPSIS":"545.854","MEAN_ELEMENT_THEORY":"SGP4","MEAN_MOTION_DOT":"-0.00000873","MEAN_MOTION_DDOT":"0.0000000000000","DECAY_DATE":null,"MEAN_ANOMALY":"297.8629","OBJECT_NAME":"STARLINK-2348","SEMIMAJOR_AXIS":"6925.357","ARG_OF_PERICENTER":"62.2560","OBJECT_ID":"2021-021AE","LAUNCH_DATE":"2021-03-14","ECCENTRICITY":"0.00019760","APOAPSIS":"548.591","NORAD_CAT_ID":"47888","RA_OF_ASC_NODE":"126.1961","BSTAR":"-0.00003972700000","GP_ID":"208338030","TLE_LINE1":"1 47888U 21021AE  22198.80578940 -.00000873  00000-0 -39727-4 0  9996","MEAN_MOTION":"15.06397187","ELEMENT_SET_NO":"999","OBJECT_TYPE":"PAYLOAD","COUNTRY_CODE":"US"},{"SEMIMAJOR_AXIS":"6925.371","ARG_OF_PERICENTER":"62.3951","MEAN_ANOMALY":"297.7223","OBJECT_NAME":"STARLINK-2349","MEAN_MOTION_DDOT":"0.0000000000000","MEAN_MOTION_DOT":"-0.00000615","DECAY_DATE":null,"MEAN_ELEMENT_THEORY":"SGP4","CLASSIFICATION_TYPE":"U","PERIAPSIS":"545.968","EPOCH":"2022-07-17T05:16:24.712608","REF_FRAME":"TEME","EPHEMERIS_TYPE":"0","FILE":"3516162","TIME_SYSTEM":"UTC","RCS_SIZE":"LARGE","PERIOD":"95.593","CENTER_NAME":"EARTH","INCLINATION":"53.0556","SITE":"AFETR","REV_AT_EPOCH":"7556","TLE_LINE2":"2 47889  53.0556 128.8289 0001831  62.3951 297.7223 15.06392526 75563","COUNTRY_CODE":"US","OBJECT_TYPE":"PAYLOAD","ELEMENT_SET_NO":"999","TLE_LINE1":"1 47889U 21021AF  22198.21973047 -.00000615  00000-0 -22419-4 0  9993","MEAN_MOTION":"15.06392526","GP_ID":"208308391","BSTAR":"-0.00002241900000","RA_OF_ASC_NODE":"128.8289","NORAD_CAT_ID":"47889","APOAPSIS":"548.505","ECCENTRICITY":"0.00018310","OBJECT_ID":"2021-021AF","LAUNCH_DATE":"2021-03-14"},{"PERIOD":"93.374","CENTER_NAME":"EARTH","SITE":"AFETR","INCLINATION":"53.0530","REV_AT_EPOCH":"7542","TLE_LINE2":"2 47890  53.0530  70.9842 0002134  29.3960 330.7164 15.42177636 75429","FILE":"3516387","RCS_SIZE":"LARGE","TIME_SYSTEM":"UTC","CLASSIFICATION_TYPE":"U","PERIAPSIS":"438.231","EPOCH":"2022-07-17T16:31:41.844864","REF_FRAME":"TEME","EPHEMERIS_TYPE":"0","MEAN_ELEMENT_THEORY":"SGP4","MEAN_ANOMALY":"330.7164","OBJECT_NAME":"STARLINK-2350","MEAN_MOTION_DOT":"0.00006884","MEAN_MOTION_DDOT":"0.0000000000000","DECAY_DATE":null,"SEMIMAJOR_AXIS":"6817.821","ARG_OF_PERICENTER":"29.3960","ECCENTRICITY":"0.00021340","OBJECT_ID":"2021-021AG","LAUNCH_DATE":"2021-03-14","NORAD_CAT_ID":"47890","APOAPSIS":"441.141","RA_OF_ASC_NODE":"70.9842","BSTAR":"0.00016741000000","GP_ID":"208339022","ELEMENT_SET_NO":"999","TLE_LINE1":"1 47890U 21021AG  22198.68867876  .00006884  00000-0  16741-3 0  9990","MEAN_MOTION":"15.42177636","OBJECT_TYPE":"PAYLOAD","COUNTRY_CODE":"US"},{"EPOCH":"2022-07-17T19:45:33.009408","EPHEMERIS_TYPE":"0","REF_FRAME":"TEME","PERIAPSIS":"545.971","CLASSIFICATION_TYPE":"U","MEAN_ELEMENT_THEORY":"SGP4","REV_AT_EPOCH":"7562","TLE_LINE2":"2 47891  53.0545 136.1177 0001768  66.2224 293.8950 15.06406025 75628","CENTER_NAME":"EARTH","PERIOD":"95.592","INCLINATION":"53.0545","SITE":"AFETR","FILE":"3516387","TIME_SYSTEM":"UTC","RCS_SIZE":"LARGE","MEAN_MOTION_DDOT":"0.0000000000000","MEAN_MOTION_DOT":"0.00001594","DECAY_DATE":null,"MEAN_ANOMALY":"293.8950","OBJECT_NAME":"STARLINK-2351","SEMIMAJOR_AXIS":"6925.330","ARG_OF_PERICENTER":"66.2224","RA_OF_ASC_NODE":"136.1177","BSTAR":"0.00012587000000","GP_ID":"208337281","OBJECT_ID":"2021-021AH","LAUNCH_DATE":"2021-03-14","ECCENTRICITY":"0.00017680","APOAPSIS":"548.419","NORAD_CAT_ID":"47891","OBJECT_TYPE":"PAYLOAD","COUNTRY_CODE":"US","TLE_LINE1":"1 47891U 21021AH  22198.82329872  .00001594  00000-0  12587-3 0  9993","MEAN_MOTION":"15.06406025","ELEMENT_SET_NO":"999"}];
